{
  "type": "FeatureCollection",
  "features": [
    {
      "type": "Feature",
      "properties": {
        "norad_id": 32224,
        "name": "FENGYUN 1C DEB",
        "group": "fengyun-1c-debris",
        "lat": -78.67356108042252,
        "lon": 67.78364897933906,
        "alt_km": 836.5134940804328,
        "timestamp": "2025-12-14T20:40:32.057604+00:00",
        "meta_object_name": "FENGYUN 1C DEB",
        "meta_object_id": "1999-025CVW",
        "meta_epoch": "2025-12-14T07:43:57.273888",
        "meta_mean_motion": 14.34025879,
        "meta_eccentricity": 0.00771914,
        "meta_inclination": 98.9842,
        "meta_ra_of_asc_node": 299.3938,
        "meta_arg_of_pericenter": 61.9272,
        "meta_mean_anomaly": 298.9689,
        "meta_ephemeris_type": 0,
        "meta_classification_type": "U",
        "meta_norad_cat_id": 32224,
        "meta_element_set_no": 999,
        "meta_rev_at_epoch": 95746,
        "meta_bstar": 0.00044389258,
        "meta_mean_motion_dot": 1.235e-05,
        "meta_mean_motion_ddot": 0,
        "tle_line1": "1 32224U 99025CVW 25348.32219067  .00001235  00000+0  44389-3 0  9991",
        "tle_line2": "2 32224  98.9842 299.3938 0077191  61.9272 298.9689 14.34025879957465"
      },
      "geometry": {
        "type": "Point",
        "coordinates": [
          67.78364897933906,
          -78.67356108042252
        ]
      }
    },
    {
      "type": "Feature",
      "properties": {
        "norad_id": 32225,
        "name": "FENGYUN 1C DEB",
        "group": "fengyun-1c-debris",
        "lat": 57.138974698644674,
        "lon": 23.203046404173776,
        "alt_km": 884.2132398225931,
        "timestamp": "2025-12-14T20:40:32.057614+00:00",
        "meta_object_name": "FENGYUN 1C DEB",
        "meta_object_id": "1999-025CVX",
        "meta_epoch": "2025-12-10T21:13:47.563392",
        "meta_mean_motion": 14.13042634,
        "meta_eccentricity": 0.0071641,
        "meta_inclination": 99.0927,
        "meta_ra_of_asc_node": 33.5192,
        "meta_arg_of_pericenter": 211.7536,
        "meta_mean_anomaly": 147.9305,
        "meta_ephemeris_type": 0,
        "meta_classification_type": "U",
        "meta_norad_cat_id": 32225,
        "meta_element_set_no": 999,
        "meta_rev_at_epoch": 68090,
        "meta_bstar": 0.00031798,
        "meta_mean_motion_dot": 5.62e-06,
        "meta_mean_motion_ddot": 0,
        "tle_line1": "1 32225U 99025CVX 25344.88457828  .00000562  00000+0  31798-3 0  9990",
        "tle_line2": "2 32225  99.0927  33.5192 0071641 211.7536 147.9305 14.13042634680909"
      },
      "geometry": {
        "type": "Point",
        "coordinates": [
          23.203046404173776,
          57.138974698644674
        ]
      }
    },
    {
      "type": "Feature",
      "properties": {
        "norad_id": 32230,
        "name": "FENGYUN 1C DEB",
        "group": "fengyun-1c-debris",
        "lat": -41.34413551818292,
        "lon": -49.28979438103117,
        "alt_km": 738.9442404284755,
        "timestamp": "2025-12-14T20:40:32.057624+00:00",
        "meta_object_name": "FENGYUN 1C DEB",
        "meta_object_id": "1999-025CWC",
        "meta_epoch": "2025-12-13T09:10:06.590208",
        "meta_mean_motion": 14.56150163,
        "meta_eccentricity": 0.005055,
        "meta_inclination": 98.8706,
        "meta_ra_of_asc_node": 137.0363,
        "meta_arg_of_pericenter": 87.2509,
        "meta_mean_anomaly": 303.0071,
        "meta_ephemeris_type": 0,
        "meta_classification_type": "U",
        "meta_norad_cat_id": 32230,
        "meta_element_set_no": 999,
        "meta_rev_at_epoch": 60679,
        "meta_bstar": 0.0050290882,
        "meta_mean_motion_dot": 0.00022605,
        "meta_mean_motion_ddot": 0,
        "tle_line1": "1 32230U 99025CWC 25347.38202072  .00022605  00000+0  50291-2 0  9993",
        "tle_line2": "2 32230  98.8706 137.0363 0050550  87.2509 303.0071 14.56150163606793"
      },
      "geometry": {
        "type": "Point",
        "coordinates": [
          -49.28979438103117,
          -41.34413551818292
        ]
      }
    },
    {
      "type": "Feature",
      "properties": {
        "norad_id": 32234,
        "name": "FENGYUN 1C DEB",
        "group": "fengyun-1c-debris",
        "lat": -55.09654513660195,
        "lon": 6.131171830616104,
        "alt_km": 927.3013411817201,
        "timestamp": "2025-12-14T20:40:32.057634+00:00",
        "meta_object_name": "FENGYUN 1C DEB",
        "meta_object_id": "1999-025CWG",
        "meta_epoch": "2025-12-12T00:21:39.640896",
        "meta_mean_motion": 13.94120362,
        "meta_eccentricity": 0.01375114,
        "meta_inclination": 98.5287,
        "meta_ra_of_asc_node": 195.9219,
        "meta_arg_of_pericenter": 338.147,
        "meta_mean_anomaly": 21.3862,
        "meta_ephemeris_type": 0,
        "meta_classification_type": "U",
        "meta_norad_cat_id": 32234,
        "meta_element_set_no": 999,
        "meta_rev_at_epoch": 93199,
        "meta_bstar": 0.0020757912,
        "meta_mean_motion_dot": 2.936e-05,
        "meta_mean_motion_ddot": 0,
        "tle_line1": "1 32234U 99025CWG 25346.01504214  .00002936  00000+0  20758-2 0  9999",
        "tle_line2": "2 32234  98.5287 195.9219 0137511 338.1470  21.3862 13.94120362931999"
      },
      "geometry": {
        "type": "Point",
        "coordinates": [
          6.131171830616104,
          -55.09654513660195
        ]
      }
    },
    {
      "type": "Feature",
      "properties": {
        "norad_id": 32241,
        "name": "FENGYUN 1C DEB",
        "group": "fengyun-1c-debris",
        "lat": 4.414739259231517,
        "lon": -160.89126066811627,
        "alt_km": 719.388293876902,
        "timestamp": "2025-12-14T20:40:32.057644+00:00",
        "meta_object_name": "FENGYUN 1C DEB",
        "meta_object_id": "1999-025CWP",
        "meta_epoch": "2025-12-12T20:47:10.610592",
        "meta_mean_motion": 14.28745094,
        "meta_eccentricity": 0.01463636,
        "meta_inclination": 99.0782,
        "meta_ra_of_asc_node": 16.3251,
        "meta_arg_of_pericenter": 223.1188,
        "meta_mean_anomaly": 135.8454,
        "meta_ephemeris_type": 0,
        "meta_classification_type": "U",
        "meta_norad_cat_id": 32241,
        "meta_element_set_no": 999,
        "meta_rev_at_epoch": 93825,
        "meta_bstar": 0.0022024177,
        "meta_mean_motion_dot": 6.175e-05,
        "meta_mean_motion_ddot": 0,
        "tle_line1": "1 32241U 99025CWP 25346.86609503  .00006175  00000+0  22024-2 0  9994",
        "tle_line2": "2 32241  99.0782  16.3251 0146363 223.1188 135.8454 14.28745094938256"
      },
      "geometry": {
        "type": "Point",
        "coordinates": [
          -160.89126066811627,
          4.414739259231517
        ]
      }
    },
    {
      "type": "Feature",
      "properties": {
        "norad_id": 32243,
        "name": "FENGYUN 1C DEB",
        "group": "fengyun-1c-debris",
        "lat": -61.49538783587618,
        "lon": 28.83133729202285,
        "alt_km": 1080.5334108393708,
        "timestamp": "2025-12-14T20:40:32.057654+00:00",
        "meta_object_name": "FENGYUN 1C DEB",
        "meta_object_id": "1999-025CWR",
        "meta_epoch": "2025-12-14T00:28:14.814624",
        "meta_mean_motion": 14.04614086,
        "meta_eccentricity": 0.0269468,
        "meta_inclination": 98.2684,
        "meta_ra_of_asc_node": 12.5319,
        "meta_arg_of_pericenter": 119.9156,
        "meta_mean_anomaly": 242.907,
        "meta_ephemeris_type": 0,
        "meta_classification_type": "U",
        "meta_norad_cat_id": 32243,
        "meta_element_set_no": 999,
        "meta_rev_at_epoch": 93606,
        "meta_bstar": 0.0022118855,
        "meta_mean_motion_dot": 4.858e-05,
        "meta_mean_motion_ddot": 0,
        "tle_line1": "1 32243U 99025CWR 25348.01961591  .00004858  00000+0  22119-2 0  9994",
        "tle_line2": "2 32243  98.2684  12.5319 0269468 119.9156 242.9070 14.04614086936063"
      },
      "geometry": {
        "type": "Point",
        "coordinates": [
          28.83133729202285,
          -61.49538783587618
        ]
      }
    },
    {
      "type": "Feature",
      "properties": {
        "norad_id": 32245,
        "name": "FENGYUN 1C DEB",
        "group": "fengyun-1c-debris",
        "lat": 38.65683775803978,
        "lon": 178.06477190221568,
        "alt_km": 605.4936446636511,
        "timestamp": "2025-12-14T20:40:32.057664+00:00",
        "meta_object_name": "FENGYUN 1C DEB",
        "meta_object_id": "1999-025CWT",
        "meta_epoch": "2025-12-08T06:47:00.083040",
        "meta_mean_motion": 14.76843452,
        "meta_eccentricity": 0.00978135,
        "meta_inclination": 98.6545,
        "meta_ra_of_asc_node": 178.0112,
        "meta_arg_of_pericenter": 355.9473,
        "meta_mean_anomaly": 4.0932,
        "meta_ephemeris_type": 0,
        "meta_classification_type": "U",
        "meta_norad_cat_id": 32245,
        "meta_element_set_no": 999,
        "meta_rev_at_epoch": 66040,
        "meta_bstar": 0.0014541087,
        "meta_mean_motion_dot": 0.00011,
        "meta_mean_motion_ddot": 0,
        "tle_line1": "1 32245U 99025CWT 25342.28263985  .00011000  00000+0  14541-2 0  9998",
        "tle_line2": "2 32245  98.6545 178.0112 0097813 355.9473   4.0932 14.76843452660407"
      },
      "geometry": {
        "type": "Point",
        "coordinates": [
          178.06477190221568,
          38.65683775803978
        ]
      }
    }
  ]
}